CCSDS_OMM_VERS = 2.0
CREATION_DATE  = 
ORIGINATOR     = 

OBJECT_NAME    = ALOS (DAICHI)
OBJECT_ID      = 2006-002A
CENTER_NAME    = EARTH
REF_FRAME      = TEME
TIME_SYSTEM    = UTC
MEAN_ELEMENT_THEORY = SGP/SGP4

EPOCH          = 2026-03-06T07:16:46.111008
MEAN_MOTION    = 14.69797497
ECCENTRICITY   = .00010519
INCLINATION    = 98.1215
RA_OF_ASC_NODE = 21.2758
ARG_OF_PERICENTER = 54.5297
MEAN_ANOMALY   = 305.6007

EPHEMERIS_TYPE = 0
CLASSIFICATION_TYPE = U
NORAD_CAT_ID   = 28931
ELEMENT_SET_NO = 999
REV_AT_EPOCH   = 7298
BSTAR          = .35761923E-3
MEAN_MOTION_DOT = .2085E-4
MEAN_MOTION_DDOT = 0

CCSDS_OMM_VERS = 2.0
CREATION_DATE  = 
ORIGINATOR     = 

OBJECT_NAME    = H-2A R/B
OBJECT_ID      = 2006-002B
CENTER_NAME    = EARTH
REF_FRAME      = TEME
TIME_SYSTEM    = UTC
MEAN_ELEMENT_THEORY = SGP/SGP4

EPOCH          = 2026-03-05T23:30:56.693376
MEAN_MOTION    = 15.16321114
ECCENTRICITY   = .00519125
INCLINATION    = 98.2404
RA_OF_ASC_NODE = 211.6848
ARG_OF_PERICENTER = 253.7613
MEAN_ANOMALY   = 105.7903

EPHEMERIS_TYPE = 0
CLASSIFICATION_TYPE = U
NORAD_CAT_ID   = 28932
ELEMENT_SET_NO = 999
REV_AT_EPOCH   = 9387
BSTAR          = .51902603E-3
MEAN_MOTION_DOT = .10336E-3
MEAN_MOTION_DDOT = 0

CCSDS_OMM_VERS = 2.0
CREATION_DATE  = 
ORIGINATOR     = 

OBJECT_NAME    = RESURS-DK 1
OBJECT_ID      = 2006-021A
CENTER_NAME    = EARTH
REF_FRAME      = TEME
TIME_SYSTEM    = UTC
MEAN_ELEMENT_THEORY = SGP/SGP4

EPOCH          = 2026-03-06T05:30:06.443136
MEAN_MOTION    = 15.12714009
ECCENTRICITY   = .00022812
INCLINATION    = 69.9310
RA_OF_ASC_NODE = 245.9748
ARG_OF_PERICENTER = 165.2061
MEAN_ANOMALY   = 194.9173

EPHEMERIS_TYPE = 0
CLASSIFICATION_TYPE = U
NORAD_CAT_ID   = 29228
ELEMENT_SET_NO = 999
REV_AT_EPOCH   = 8700
BSTAR          = .21603943E-3
MEAN_MOTION_DOT = .3686E-4
MEAN_MOTION_DDOT = 0

CCSDS_OMM_VERS = 2.0
CREATION_DATE  = 
ORIGINATOR     = 

OBJECT_NAME    = CZ-4B R/B
OBJECT_ID      = 2006-046C
CENTER_NAME    = EARTH
REF_FRAME      = TEME
TIME_SYSTEM    = UTC
MEAN_ELEMENT_THEORY = SGP/SGP4

EPOCH          = 2026-03-06T02:42:42.043968
MEAN_MOTION    = 15.16859580
ECCENTRICITY   = .00316307
INCLINATION    = 97.5597
RA_OF_ASC_NODE = 110.0311
ARG_OF_PERICENTER = 280.3204
MEAN_ANOMALY   = 79.4464

EPHEMERIS_TYPE = 0
CLASSIFICATION_TYPE = U
NORAD_CAT_ID   = 29507
ELEMENT_SET_NO = 999
REV_AT_EPOCH   = 5950
BSTAR          = .25945866E-3
MEAN_MOTION_DOT = .5101E-4
MEAN_MOTION_DDOT = 0

CCSDS_OMM_VERS = 2.0
CREATION_DATE  = 
ORIGINATOR     = 

OBJECT_NAME    = CZ-2C R/B
OBJECT_ID      = 2007-010B
CENTER_NAME    = EARTH
REF_FRAME      = TEME
TIME_SYSTEM    = UTC
MEAN_ELEMENT_THEORY = SGP/SGP4

EPOCH          = 2026-03-06T06:34:19.096896
MEAN_MOTION    = 14.20244763
ECCENTRICITY   = .00579735
INCLINATION    = 98.3978
RA_OF_ASC_NODE = 178.7239
ARG_OF_PERICENTER = 304.7383
MEAN_ANOMALY   = 54.8343

EPHEMERIS_TYPE = 0
CLASSIFICATION_TYPE = U
NORAD_CAT_ID   = 31114
ELEMENT_SET_NO = 999
REV_AT_EPOCH   = 97923
BSTAR          = .10322837E-3
MEAN_MOTION_DOT = .183E-5
MEAN_MOTION_DDOT = 0

CCSDS_OMM_VERS = 2.0
CREATION_DATE  = 
ORIGINATOR     = 

OBJECT_NAME    = COSMO-SKYMED 1
OBJECT_ID      = 2007-023A
CENTER_NAME    = EARTH
REF_FRAME      = TEME
TIME_SYSTEM    = UTC
MEAN_ELEMENT_THEORY = SGP/SGP4

EPOCH          = 2026-03-06T06:06:24.979392
MEAN_MOTION    = 14.96500257
ECCENTRICITY   = .00009202
INCLINATION    = 97.8863
RA_OF_ASC_NODE = 256.2591
ARG_OF_PERICENTER = 98.8639
MEAN_ANOMALY   = 261.2686

EPHEMERIS_TYPE = 0
CLASSIFICATION_TYPE = U
NORAD_CAT_ID   = 31598
ELEMENT_SET_NO = 999
REV_AT_EPOCH   = 1439
BSTAR          = .33879783E-3
MEAN_MOTION_DOT = .379E-4
MEAN_MOTION_DDOT = 0

CCSDS_OMM_VERS = 2.0
CREATION_DATE  = 
ORIGINATOR     = 

OBJECT_NAME    = COSMOS 2428
OBJECT_ID      = 2007-029A
CENTER_NAME    = EARTH
REF_FRAME      = TEME
TIME_SYSTEM    = UTC
MEAN_ELEMENT_THEORY = SGP/SGP4

EPOCH          = 2026-03-06T03:16:38.661312
MEAN_MOTION    = 14.12945189
ECCENTRICITY   = .00089461
INCLINATION    = 70.9426
RA_OF_ASC_NODE = 210.8006
ARG_OF_PERICENTER = 280.6888
MEAN_ANOMALY   = 79.3226

EPHEMERIS_TYPE = 0
CLASSIFICATION_TYPE = U
NORAD_CAT_ID   = 31792
ELEMENT_SET_NO = 999
REV_AT_EPOCH   = 96359
BSTAR          = .59329234E-4
MEAN_MOTION_DOT = .63E-6
MEAN_MOTION_DDOT = 0

CCSDS_OMM_VERS = 2.0
CREATION_DATE  = 
ORIGINATOR     = 

OBJECT_NAME    = SL-16 R/B
OBJECT_ID      = 2007-029B
CENTER_NAME    = EARTH
REF_FRAME      = TEME
TIME_SYSTEM    = UTC
MEAN_ELEMENT_THEORY = SGP/SGP4

EPOCH          = 2026-03-05T18:07:49.456992
MEAN_MOTION    = 14.14833448
ECCENTRICITY   = .00023724
INCLINATION    = 70.9757
RA_OF_ASC_NODE = 180.6541
ARG_OF_PERICENTER = 277.2484
MEAN_ANOMALY   = 192.7201

EPHEMERIS_TYPE = 0
CLASSIFICATION_TYPE = U
NORAD_CAT_ID   = 31793
ELEMENT_SET_NO = 999
REV_AT_EPOCH   = 96481
BSTAR          = -.2459446E-4
MEAN_MOTION_DOT = -.95E-6
MEAN_MOTION_DDOT = 0

CCSDS_OMM_VERS = 2.0
CREATION_DATE  = 
ORIGINATOR     = 

OBJECT_NAME    = KORONAS-FOTON
OBJECT_ID      = 2009-003A
CENTER_NAME    = EARTH
REF_FRAME      = TEME
TIME_SYSTEM    = UTC
MEAN_ELEMENT_THEORY = SGP/SGP4

EPOCH          = 2026-03-06T01:38:33.940032
MEAN_MOTION    = 15.43221790
ECCENTRICITY   = .00109851
INCLINATION    = 82.4277
RA_OF_ASC_NODE = 279.6435
ARG_OF_PERICENTER = 161.8849
MEAN_ANOMALY   = 198.2792

EPHEMERIS_TYPE = 0
CLASSIFICATION_TYPE = U
NORAD_CAT_ID   = 33504
ELEMENT_SET_NO = 999
REV_AT_EPOCH   = 94518
BSTAR          = .27699329E-3
MEAN_MOTION_DOT = .12362E-3
MEAN_MOTION_DDOT = 0

CCSDS_OMM_VERS = 2.0
CREATION_DATE  = 
ORIGINATOR     = 

OBJECT_NAME    = CZ-2C R/B
OBJECT_ID      = 2011-030B
CENTER_NAME    = EARTH
REF_FRAME      = TEME
TIME_SYSTEM    = UTC
MEAN_ELEMENT_THEORY = SGP/SGP4

EPOCH          = 2026-03-06T07:40:52.466016
MEAN_MOTION    = 14.81206813
ECCENTRICITY   = .00527551
INCLINATION    = 97.8546
RA_OF_ASC_NODE = 22.6507
ARG_OF_PERICENTER = 3.0391
MEAN_ANOMALY   = 155.3282

EPHEMERIS_TYPE = 0
CLASSIFICATION_TYPE = U
NORAD_CAT_ID   = 37731
ELEMENT_SET_NO = 999
REV_AT_EPOCH   = 78959
BSTAR          = .33073231E-3
MEAN_MOTION_DOT = .2582E-4
MEAN_MOTION_DDOT = 0

CCSDS_OMM_VERS = 2.0
CREATION_DATE  = 
ORIGINATOR     = 

OBJECT_NAME    = H-2A R/B
OBJECT_ID      = 2012-025E
CENTER_NAME    = EARTH
REF_FRAME      = TEME
TIME_SYSTEM    = UTC
MEAN_ELEMENT_THEORY = SGP/SGP4

EPOCH          = 2026-03-06T05:57:57.571200
MEAN_MOTION    = 14.95130706
ECCENTRICITY   = .00435927
INCLINATION    = 98.4729
RA_OF_ASC_NODE = 32.0190
ARG_OF_PERICENTER = 325.8720
MEAN_ANOMALY   = 33.9697

EPHEMERIS_TYPE = 0
CLASSIFICATION_TYPE = U
NORAD_CAT_ID   = 38341
ELEMENT_SET_NO = 999
REV_AT_EPOCH   = 74770
BSTAR          = .48399254E-3
MEAN_MOTION_DOT = .5342E-4
MEAN_MOTION_DDOT = 0

CCSDS_OMM_VERS = 2.0
CREATION_DATE  = 
ORIGINATOR     = 

OBJECT_NAME    = SHIJIAN-16 (SJ-16)
OBJECT_ID      = 2013-057A
CENTER_NAME    = EARTH
REF_FRAME      = TEME
TIME_SYSTEM    = UTC
MEAN_ELEMENT_THEORY = SGP/SGP4

EPOCH          = 2026-03-06T08:15:31.021920
MEAN_MOTION    = 14.92330202
ECCENTRICITY   = .0015603
INCLINATION    = 74.9732
RA_OF_ASC_NODE = 191.4202
ARG_OF_PERICENTER = 120.9704
MEAN_ANOMALY   = 239.3020

EPHEMERIS_TYPE = 0
CLASSIFICATION_TYPE = U
NORAD_CAT_ID   = 39358
ELEMENT_SET_NO = 999
REV_AT_EPOCH   = 67100
BSTAR          = .56098717E-3
MEAN_MOTION_DOT = .5723E-4
MEAN_MOTION_DDOT = 0

